ALOS-4 (DAICHI-4)       
1 60182U 24123A   24190.24555362  .00000936  00000+0  11344-3 0  9990
2 60182  97.8747 286.6336 0002754 104.3747 255.7774 14.85968381  1055
